{"type": "FeatureCollection", "features": [{"type": "Feature", "properties": {"surface": "paved"}, "geometry": {"type": "LineString", "coordinates": [[-71.090600034222, 42.336990321055055], [-71.09059609472752, 42.33698168769479]]}}, {"type": "Feature", "properties": {"surface": "paved"}, "geometry": {"type": "LineString", "coordinates": [[-71.09059609472752, 42.33698168769479], [-71.09059617854655, 42.33698286116123]]}}, {"type": "Feature", "properties": {"surface": "paved"}, "geometry": {"type": "LineString", "coordinates": [[-71.09059617854655, 42.33698286116123], [-71.0906058177352, 42.336983447894454]]}}, {"type": "Feature", "properties": {"surface": "paved"}, "geometry": {"type": "LineString", "coordinates": [[-71.0906058177352, 42.336983447894454], [-71.09060657210648, 42.33698948286474]]}}, {"type": "Feature", "properties": {"surface": "paved"}, "geometry": {"type": "LineString", "coordinates": [[-71.09060657210648, 42.33698948286474], [-71.0906142834574, 42.336997697129846]]}}, {"type": "Feature", "properties": {"surface": "paved"}, "geometry": {"type": "LineString", "coordinates": [[-71.0906142834574, 42.336997697129846], [-71.09063029289246, 42.33699786476791]]}}, {"type": "Feature", "properties": {"surface": "paved"}, "geometry": {"type": "LineString", "coordinates": [[-71.09063029289246, 42.33699786476791], [-71.090650241822, 42.33700222335756]]}}, {"type": "Feature", "properties": {"surface": "paved"}, "geometry": {"type": "LineString", "coordinates": [[-71.090650241822, 42.33700222335756], [-71.0906639881432, 42.337009347975254]]}}, {"type": "Feature", "properties": {"surface": "paved"}, "geometry": {"type": "LineString", "coordinates": [[-71.0906639881432, 42.337009347975254], [-71.0906763933599, 42.337013958022]]}}, {"type": "Feature", "properties": {"surface": "paved"}, "geometry": {"type": "LineString", "coordinates": [[-71.0906763933599, 42.337013958022], [-71.09068938530982, 42.33702133409679]]}}, {"type": "Feature", "properties": {"surface": "paved"}, "geometry": {"type": "LineString", "coordinates": [[-71.09068938530982, 42.33702133409679], [-71.0907036345452, 42.337026530876756]]}}, {"type": "Feature", "properties": {"surface": "paved"}, "geometry": {"type": "LineString", "coordinates": [[-71.0907036345452, 42.337026530876756], [-71.09071796759963, 42.33702829107642]]}}, {"type": "Feature", "properties": {"surface": "paved"}, "geometry": {"type": "LineString", "coordinates": [[-71.09071796759963, 42.33702829107642], [-71.09073355793953, 42.33703097328544]]}}, {"type": "Feature", "properties": {"surface": "paved"}, "geometry": {"type": "LineString", "coordinates": [[-71.09073355793953, 42.33703097328544], [-71.09075677581131, 42.33703667297959]]}}, {"type": "Feature", "properties": {"surface": "paved"}, "geometry": {"type": "LineString", "coordinates": [[-71.09075677581131, 42.33703667297959], [-71.09078108333051, 42.33703734353185]]}}, {"type": "Feature", "properties": {"surface": "paved"}, "geometry": {"type": "LineString", "coordinates": [[-71.09078108333051, 42.33703734353185], [-71.09080337919295, 42.3370364215225]]}}, {"type": "Feature", "properties": {"surface": "paved"}, "geometry": {"type": "LineString", "coordinates": [[-71.09080337919295, 42.3370364215225], [-71.0908228252083, 42.33703809790313]]}}, {"type": "Feature", "properties": {"surface": "paved"}, "geometry": {"type": "LineString", "coordinates": [[-71.0908228252083, 42.33703809790313], [-71.09084093011916, 42.33704237267375]]}}, {"type": "Feature", "properties": {"surface": "paved"}, "geometry": {"type": "LineString", "coordinates": [[-71.09084093011916, 42.33704237267375], [-71.09085367061198, 42.33704539015889]]}}, {"type": "Feature", "properties": {"surface": "paved"}, "geometry": {"type": "LineString", "coordinates": [[-71.09085367061198, 42.33704539015889], [-71.0908648185432, 42.33705058693886]]}}, {"type": "Feature", "properties": {"surface": "paved"}, "geometry": {"type": "LineString", "coordinates": [[-71.0908648185432, 42.33705058693886], [-71.09087638556957, 42.33705259859562]]}}, {"type": "Feature", "properties": {"surface": "paved"}, "geometry": {"type": "LineString", "coordinates": [[-71.09087638556957, 42.33705259859562], [-71.0908872820437, 42.337058885023]]}}, {"type": "Feature", "properties": {"surface": "paved"}, "geometry": {"type": "LineString", "coordinates": [[-71.0908872820437, 42.337058885023], [-71.09089524485171, 42.3370657581836]]}}, {"type": "Feature", "properties": {"surface": "paved"}, "geometry": {"type": "LineString", "coordinates": [[-71.09089524485171, 42.3370657581836], [-71.09090832062066, 42.33707229606807]]}}, {"type": "Feature", "properties": {"surface": "paved"}, "geometry": {"type": "LineString", "coordinates": [[-71.09090832062066, 42.33707229606807], [-71.09092273749411, 42.33707891777158]]}}, {"type": "Feature", "properties": {"surface": "paved"}, "geometry": {"type": "LineString", "coordinates": [[-71.09092273749411, 42.33707891777158], [-71.09093732200563, 42.33708629384637]]}}, {"type": "Feature", "properties": {"surface": "paved"}, "geometry": {"type": "LineString", "coordinates": [[-71.09093732200563, 42.33708629384637], [-71.09095425345004, 42.337094927206635]]}}, {"type": "Feature", "properties": {"surface": "paved"}, "geometry": {"type": "LineString", "coordinates": [[-71.09095425345004, 42.337094927206635], [-71.09097495675087, 42.337103141471744]]}}, {"type": "Feature", "properties": {"surface": "paved"}, "geometry": {"type": "LineString", "coordinates": [[-71.09097495675087, 42.337103141471744], [-71.09099448658526, 42.33710783533752]]}}, {"type": "Feature", "properties": {"surface": "paved"}, "geometry": {"type": "LineString", "coordinates": [[-71.09099448658526, 42.33710783533752], [-71.09101317822933, 42.33711403794587]]}}, {"type": "Feature", "properties": {"surface": "paved"}, "geometry": {"type": "LineString", "coordinates": [[-71.09101317822933, 42.33711403794587], [-71.0910318698734, 42.33711848035455]]}}, {"type": "Feature", "properties": {"surface": "paved"}, "geometry": {"type": "LineString", "coordinates": [[-71.0910318698734, 42.33711848035455], [-71.09104963950813, 42.337122755125165]]}}, {"type": "Feature", "properties": {"surface": "paved"}, "geometry": {"type": "LineString", "coordinates": [[-71.09104963950813, 42.337122755125165], [-71.0910630505532, 42.33713272958994]]}}, {"type": "Feature", "properties": {"surface": "paved"}, "geometry": {"type": "LineString", "coordinates": [[-71.0910630505532, 42.33713272958994], [-71.09107646159828, 42.33714245259762]]}}, {"type": "Feature", "properties": {"surface": "paved"}, "geometry": {"type": "LineString", "coordinates": [[-71.09107646159828, 42.33714245259762], [-71.09108936972916, 42.337148739025]]}}, {"type": "Feature", "properties": {"surface": "paved"}, "geometry": {"type": "LineString", "coordinates": [[-71.09108936972916, 42.337148739025], [-71.09109682962298, 42.337162820622325]]}}, {"type": "Feature", "properties": {"surface": "paved"}, "geometry": {"type": "LineString", "coordinates": [[-71.09109682962298, 42.337162820622325], [-71.09112574718893, 42.33714781701565]]}}, {"type": "Feature", "properties": {"surface": "paved"}, "geometry": {"type": "LineString", "coordinates": [[-71.09112574718893, 42.33714781701565], [-71.09113186597824, 42.33715779148042]]}}, {"type": "Feature", "properties": {"surface": "paved"}, "geometry": {"type": "LineString", "coordinates": [[-71.09113186597824, 42.33715779148042], [-71.09114963561296, 42.337158378213644]]}}, {"type": "Feature", "properties": {"surface": "paved"}, "geometry": {"type": "LineString", "coordinates": [[-71.09114963561296, 42.337158378213644], [-71.09115969389677, 42.337172040715814]]}}, {"type": "Feature", "properties": {"surface": "paved"}, "geometry": {"type": "LineString", "coordinates": [[-71.09115969389677, 42.337172040715814], [-71.09116765670478, 42.3371812608093]]}}, {"type": "Feature", "properties": {"surface": "paved"}, "geometry": {"type": "LineString", "coordinates": [[-71.09116765670478, 42.3371812608093], [-71.09117369167507, 42.33718788251281]]}}, {"type": "Feature", "properties": {"surface": "paved"}, "geometry": {"type": "LineString", "coordinates": [[-71.09117369167507, 42.33718788251281], [-71.09118073247373, 42.337194085121155]]}}, {"type": "Feature", "properties": {"surface": "paved"}, "geometry": {"type": "LineString", "coordinates": [[-71.09118073247373, 42.337194085121155], [-71.09118827618659, 42.33719986863434]]}}, {"type": "Feature", "properties": {"surface": "paved"}, "geometry": {"type": "LineString", "coordinates": [[-71.09118827618659, 42.33719986863434], [-71.0911941435188, 42.33721227385104]]}}, {"type": "Feature", "properties": {"surface": "paved"}, "geometry": {"type": "LineString", "coordinates": [[-71.0911941435188, 42.33721227385104], [-71.09120604582131, 42.33721545897424]]}}, {"type": "Feature", "properties": {"surface": "paved"}, "geometry": {"type": "LineString", "coordinates": [[-71.09120604582131, 42.33721545897424], [-71.09121887013316, 42.337219063192606]]}}, {"type": "Feature", "properties": {"surface": "paved"}, "geometry": {"type": "LineString", "coordinates": [[-71.09121887013316, 42.337219063192606], [-71.09122264198959, 42.33722266741097]]}}, {"type": "Feature", "properties": {"surface": "paved"}, "geometry": {"type": "LineString", "coordinates": [[-71.09122264198959, 42.33722266741097], [-71.09122389927506, 42.337225349619985]]}}, {"type": "Feature", "properties": {"surface": "paved"}, "geometry": {"type": "LineString", "coordinates": [[-71.09122389927506, 42.337225349619985], [-71.09122247435153, 42.337228031829]]}}, {"type": "Feature", "properties": {"surface": "paved"}, "geometry": {"type": "LineString", "coordinates": [[-71.09122247435153, 42.337228031829], [-71.09121937304735, 42.33723163604736]]}}, {"type": "Feature", "properties": {"surface": "paved"}, "geometry": {"type": "LineString", "coordinates": [[-71.09121937304735, 42.33723163604736], [-71.09121979214251, 42.33723398298025]]}}, {"type": "Feature", "properties": {"surface": "paved"}, "geometry": {"type": "LineString", "coordinates": [[-71.09121979214251, 42.33723398298025], [-71.09121358953416, 42.337241442874074]]}}, {"type": "Feature", "properties": {"surface": "paved"}, "geometry": {"type": "LineString", "coordinates": [[-71.09121358953416, 42.337241442874074], [-71.09120512381196, 42.33724856749177]]}}, {"type": "Feature", "properties": {"surface": "paved"}, "geometry": {"type": "LineString", "coordinates": [[-71.09120512381196, 42.33724856749177], [-71.09119825065136, 42.33725594356656]]}}, {"type": "Feature", "properties": {"surface": "paved"}, "geometry": {"type": "LineString", "coordinates": [[-71.09119825065136, 42.33725594356656], [-71.09119581989944, 42.33726382255554]]}}, {"type": "Feature", "properties": {"surface": "paved"}, "geometry": {"type": "LineString", "coordinates": [[-71.09119581989944, 42.33726382255554], [-71.09119665808976, 42.337272791191936]]}}, {"type": "Feature", "properties": {"surface": "paved"}, "geometry": {"type": "LineString", "coordinates": [[-71.09119665808976, 42.337272791191936], [-71.09119489789009, 42.33728377148509]]}}, {"type": "Feature", "properties": {"surface": "paved"}, "geometry": {"type": "LineString", "coordinates": [[-71.09119489789009, 42.33728377148509], [-71.09119162894785, 42.33730338513851]]}}, {"type": "Feature", "properties": {"surface": "paved"}, "geometry": {"type": "LineString", "coordinates": [[-71.09119162894785, 42.33730338513851], [-71.09118425287306, 42.33732341788709]]}}, {"type": "Feature", "properties": {"surface": "paved"}, "geometry": {"type": "LineString", "coordinates": [[-71.09118425287306, 42.33732341788709], [-71.09117629006505, 42.337339678779244]]}}, {"type": "Feature", "properties": {"surface": "paved"}, "geometry": {"type": "LineString", "coordinates": [[-71.09117629006505, 42.337339678779244], [-71.09116254374385, 42.33735468238592]]}}, {"type": "Feature", "properties": {"surface": "paved"}, "geometry": {"type": "LineString", "coordinates": [[-71.09116254374385, 42.33735468238592], [-71.09115273691714, 42.3373749665916]]}}, {"type": "Feature", "properties": {"surface": "paved"}, "geometry": {"type": "LineString", "coordinates": [[-71.09115273691714, 42.3373749665916], [-71.09113647602499, 42.33739089220762]]}}, {"type": "Feature", "properties": {"surface": "paved"}, "geometry": {"type": "LineString", "coordinates": [[-71.09113647602499, 42.33739089220762], [-71.09111367724836, 42.33740656636655]]}}, {"type": "Feature", "properties": {"surface": "paved"}, "geometry": {"type": "LineString", "coordinates": [[-71.09111367724836, 42.33740656636655], [-71.09108668752015, 42.3374214861542]]}}, {"type": "Feature", "properties": {"surface": "paved"}, "geometry": {"type": "LineString", "coordinates": [[-71.09108668752015, 42.3374214861542], [-71.09105517156422, 42.3374436981976]]}}, {"type": "Feature", "properties": {"surface": "paved"}, "geometry": {"type": "LineString", "coordinates": [[-71.09105517156422, 42.3374436981976], [-71.09105743467808, 42.33746155165136]]}}, {"type": "Feature", "properties": {"surface": "paved"}, "geometry": {"type": "LineString", "coordinates": [[-71.09105743467808, 42.33746155165136], [-71.09105282463133, 42.33747764490545]]}}, {"type": "Feature", "properties": {"surface": "paved"}, "geometry": {"type": "LineString", "coordinates": [[-71.09105282463133, 42.33747764490545], [-71.0910408385098, 42.33749323524535]]}}, {"type": "Feature", "properties": {"surface": "paved"}, "geometry": {"type": "LineString", "coordinates": [[-71.0910408385098, 42.33749323524535], [-71.09103069640696, 42.33751008287072]]}}, {"type": "Feature", "properties": {"surface": "paved"}, "geometry": {"type": "LineString", "coordinates": [[-71.09103069640696, 42.33751008287072], [-71.0910215601325, 42.337526343762875]]}}, {"type": "Feature", "properties": {"surface": "paved"}, "geometry": {"type": "LineString", "coordinates": [[-71.0910215601325, 42.337526343762875], [-71.09100982546806, 42.33754168264568]]}}, {"type": "Feature", "properties": {"surface": "paved"}, "geometry": {"type": "LineString", "coordinates": [[-71.09100982546806, 42.33754168264568], [-71.09100689180195, 42.33755651861429]]}}, {"type": "Feature", "properties": {"surface": "paved"}, "geometry": {"type": "LineString", "coordinates": [[-71.09100689180195, 42.33755651861429], [-71.09100705944002, 42.33757026493549]]}}, {"type": "Feature", "properties": {"surface": "paved"}, "geometry": {"type": "LineString", "coordinates": [[-71.09100705944002, 42.33757026493549], [-71.09101275913417, 42.3375803232193]]}}, {"type": "Feature", "properties": {"surface": "paved"}, "geometry": {"type": "LineString", "coordinates": [[-71.09101275913417, 42.3375803232193], [-71.09101418405771, 42.33759758993983]]}}, {"type": "Feature", "properties": {"surface": "paved"}, "geometry": {"type": "LineString", "coordinates": [[-71.09101418405771, 42.33759758993983], [-71.09100957401097, 42.33761938288808]]}}, {"type": "Feature", "properties": {"surface": "paved"}, "geometry": {"type": "LineString", "coordinates": [[-71.09100957401097, 42.33761938288808], [-71.09101175330579, 42.33764335513115]]}}, {"type": "Feature", "properties": {"surface": "paved"}, "geometry": {"type": "LineString", "coordinates": [[-71.09101175330579, 42.33764335513115], [-71.09101108275354, 42.337666070088744]]}}, {"type": "Feature", "properties": {"surface": "paved"}, "geometry": {"type": "LineString", "coordinates": [[-71.09101108275354, 42.337666070088744], [-71.091014938429, 42.33768526464701]]}}, {"type": "Feature", "properties": {"surface": "paved"}, "geometry": {"type": "LineString", "coordinates": [[-71.091014938429, 42.33768526464701], [-71.09101787209511, 42.33770169317722]]}}, {"type": "Feature", "properties": {"surface": "paved"}, "geometry": {"type": "LineString", "coordinates": [[-71.09101787209511, 42.33770169317722], [-71.09102776274085, 42.33771904371679]]}}, {"type": "Feature", "properties": {"surface": "paved"}, "geometry": {"type": "LineString", "coordinates": [[-71.09102776274085, 42.33771904371679], [-71.09104595147073, 42.3377391602844]]}}, {"type": "Feature", "properties": {"surface": "paved"}, "geometry": {"type": "LineString", "coordinates": [[-71.09104595147073, 42.3377391602844], [-71.09104729257524, 42.337770257145166]]}}, {"type": "Feature", "properties": {"surface": "paved"}, "geometry": {"type": "LineString", "coordinates": [[-71.09104729257524, 42.337770257145166], [-71.09107562340796, 42.3377891164273]]}}, {"type": "Feature", "properties": {"surface": "paved"}, "geometry": {"type": "LineString", "coordinates": [[-71.09107562340796, 42.3377891164273], [-71.09109984710813, 42.33777486719191]]}}, {"type": "Feature", "properties": {"surface": "paved"}, "geometry": {"type": "LineString", "coordinates": [[-71.09109984710813, 42.33777486719191], [-71.09113538637757, 42.33777042478323]]}}, {"type": "Feature", "properties": {"surface": "paved"}, "geometry": {"type": "LineString", "coordinates": [[-71.09113538637757, 42.33777042478323], [-71.09115784987807, 42.33776296488941]]}}, {"type": "Feature", "properties": {"surface": "paved"}, "geometry": {"type": "LineString", "coordinates": [[-71.09115784987807, 42.33776296488941], [-71.09117092564702, 42.337769670411944]]}}, {"type": "Feature", "properties": {"surface": "paved"}, "geometry": {"type": "LineString", "coordinates": [[-71.09117092564702, 42.337769670411944], [-71.09117637388408, 42.33777344226837]]}}, {"type": "Feature", "properties": {"surface": "paved"}, "geometry": {"type": "LineString", "coordinates": [[-71.09117637388408, 42.33777344226837], [-71.09117955900729, 42.33777495101094]]}}, {"type": "Feature", "properties": {"surface": "paved"}, "geometry": {"type": "LineString", "coordinates": [[-71.09117955900729, 42.33777495101094], [-71.09117075800896, 42.337765730917454]]}}, {"type": "Feature", "properties": {"surface": "paved"}, "geometry": {"type": "LineString", "coordinates": [[-71.09117075800896, 42.337765730917454], [-71.09116472303867, 42.337764389812946]]}}, {"type": "Feature", "properties": {"surface": "paved"}, "geometry": {"type": "LineString", "coordinates": [[-71.09116472303867, 42.337764389812946], [-71.09115944243968, 42.33776229433715]]}}, {"type": "Feature", "properties": {"surface": "paved"}, "geometry": {"type": "LineString", "coordinates": [[-71.09115944243968, 42.33776229433715], [-71.09114913269877, 42.3377650603652]]}}, {"type": "Feature", "properties": {"surface": "paved"}, "geometry": {"type": "LineString", "coordinates": [[-71.09114913269877, 42.3377650603652], [-71.0911446902901, 42.33776816166937]]}}, {"type": "Feature", "properties": {"surface": "paved"}, "geometry": {"type": "LineString", "coordinates": [[-71.0911446902901, 42.33776816166937], [-71.09114049933851, 42.33777235262096]]}}, {"type": "Feature", "properties": {"surface": "paved"}, "geometry": {"type": "LineString", "coordinates": [[-71.09114049933851, 42.33777235262096], [-71.0911407507956, 42.33778199180961]]}}, {"type": "Feature", "properties": {"surface": "paved"}, "geometry": {"type": "LineString", "coordinates": [[-71.0911407507956, 42.33778199180961], [-71.09114209190011, 42.337792217731476]]}}, {"type": "Feature", "properties": {"surface": "paved"}, "geometry": {"type": "LineString", "coordinates": [[-71.09114209190011, 42.337792217731476], [-71.09114209190011, 42.33780772425234]]}}, {"type": "Feature", "properties": {"surface": "paved"}, "geometry": {"type": "LineString", "coordinates": [[-71.09114209190011, 42.33780772425234], [-71.09114066697657, 42.33782649971545]]}}, {"type": "Feature", "properties": {"surface": "paved"}, "geometry": {"type": "LineString", "coordinates": [[-71.09114066697657, 42.33782649971545], [-71.09113907441497, 42.33784183859825]]}}, {"type": "Feature", "properties": {"surface": "paved"}, "geometry": {"type": "LineString", "coordinates": [[-71.09113907441497, 42.33784183859825], [-71.09115164726973, 42.337860530242324]]}}, {"type": "Feature", "properties": {"surface": "paved"}, "geometry": {"type": "LineString", "coordinates": [[-71.09115164726973, 42.337860530242324], [-71.09114846214652, 42.33787938952446]]}}, {"type": "Feature", "properties": {"surface": "paved"}, "geometry": {"type": "LineString", "coordinates": [[-71.09114846214652, 42.33787938952446], [-71.09113505110145, 42.33790805563331]]}}, {"type": "Feature", "properties": {"surface": "paved"}, "geometry": {"type": "LineString", "coordinates": [[-71.09113505110145, 42.33790805563331], [-71.09113505110145, 42.33793546445668]]}}, {"type": "Feature", "properties": {"surface": "paved"}, "geometry": {"type": "LineString", "coordinates": [[-71.09113505110145, 42.33793546445668], [-71.09113119542599, 42.33795457519591]]}}, {"type": "Feature", "properties": {"surface": "paved"}, "geometry": {"type": "LineString", "coordinates": [[-71.09113119542599, 42.33795457519591], [-71.09113563783467, 42.33797745779157]]}}, {"type": "Feature", "properties": {"surface": "paved"}, "geometry": {"type": "LineString", "coordinates": [[-71.09113563783467, 42.33797745779157], [-71.09113438054919, 42.338007129728794]]}}, {"type": "Feature", "properties": {"surface": "paved"}, "geometry": {"type": "LineString", "coordinates": [[-71.09113438054919, 42.338007129728794], [-71.09113781712949, 42.3380293417722]]}}, {"type": "Feature", "properties": {"surface": "paved"}, "geometry": {"type": "LineString", "coordinates": [[-71.09113781712949, 42.3380293417722], [-71.09114686958492, 42.338052140548825]]}}, {"type": "Feature", "properties": {"surface": "paved"}, "geometry": {"type": "LineString", "coordinates": [[-71.09114686958492, 42.338052140548825], [-71.09114527702332, 42.33807527460158]]}}, {"type": "Feature", "properties": {"surface": "paved"}, "geometry": {"type": "LineString", "coordinates": [[-71.09114527702332, 42.33807527460158], [-71.0911494679749, 42.33809773810208]]}}, {"type": "Feature", "properties": {"surface": "paved"}, "geometry": {"type": "LineString", "coordinates": [[-71.0911494679749, 42.33809773810208], [-71.09114519320428, 42.33810377307236]]}}, {"type": "Feature", "properties": {"surface": "paved"}, "geometry": {"type": "LineString", "coordinates": [[-71.09114519320428, 42.33810377307236], [-71.09114569611847, 42.33811383135617]]}}, {"type": "Feature", "properties": {"surface": "paved"}, "geometry": {"type": "LineString", "coordinates": [[-71.09114569611847, 42.33811383135617], [-71.09115223400295, 42.33812749385834]]}}, {"type": "Feature", "properties": {"surface": "paved"}, "geometry": {"type": "LineString", "coordinates": [[-71.09115223400295, 42.33812749385834], [-71.09115784987807, 42.338149789720774]]}}, {"type": "Feature", "properties": {"surface": "paved"}, "geometry": {"type": "LineString", "coordinates": [[-71.09115784987807, 42.338149789720774], [-71.09116279520094, 42.33816563151777]]}}, {"type": "Feature", "properties": {"surface": "paved"}, "geometry": {"type": "LineString", "coordinates": [[-71.09116279520094, 42.33816563151777], [-71.09117989428341, 42.338194381445646]]}}, {"type": "Feature", "properties": {"surface": "paved"}, "geometry": {"type": "LineString", "coordinates": [[-71.09117989428341, 42.338194381445646], [-71.09119003638625, 42.33821994625032]]}}, {"type": "Feature", "properties": {"surface": "paved"}, "geometry": {"type": "LineString", "coordinates": [[-71.09119003638625, 42.33821994625032], [-71.09119766391814, 42.338244672864676]]}}, {"type": "Feature", "properties": {"surface": "paved"}, "geometry": {"type": "LineString", "coordinates": [[-71.09119766391814, 42.338244672864676], [-71.09120755456388, 42.338265627622604]]}}, {"type": "Feature", "properties": {"surface": "paved"}, "geometry": {"type": "LineString", "coordinates": [[-71.09120755456388, 42.338265627622604], [-71.09122046269476, 42.3382867500186]]}}, {"type": "Feature", "properties": {"surface": "paved"}, "geometry": {"type": "LineString", "coordinates": [[-71.09122046269476, 42.3382867500186], [-71.09123169444501, 42.338311057537794]]}}, {"type": "Feature", "properties": {"surface": "paved"}, "geometry": {"type": "LineString", "coordinates": [[-71.09123169444501, 42.338311057537794], [-71.09123513102531, 42.33832689933479]]}}, {"type": "Feature", "properties": {"surface": "paved"}, "geometry": {"type": "LineString", "coordinates": [[-71.09123513102531, 42.33832689933479], [-71.0912414174527, 42.33833561651409]]}}, {"type": "Feature", "properties": {"surface": "paved"}, "geometry": {"type": "LineString", "coordinates": [[-71.0912414174527, 42.33833561651409], [-71.09124493785203, 42.338357074186206]]}}, {"type": "Feature", "properties": {"surface": "paved"}, "geometry": {"type": "LineString", "coordinates": [[-71.09124493785203, 42.338357074186206], [-71.09125013463199, 42.33837543055415]]}}, {"type": "Feature", "properties": {"surface": "paved"}, "geometry": {"type": "LineString", "coordinates": [[-71.09125013463199, 42.33837543055415], [-71.09124795533717, 42.338400995358825]]}}, {"type": "Feature", "properties": {"surface": "paved"}, "geometry": {"type": "LineString", "coordinates": [[-71.09124795533717, 42.338400995358825], [-71.09125616960227, 42.338414657860994]]}}, {"type": "Feature", "properties": {"surface": "paved"}, "geometry": {"type": "LineString", "coordinates": [[-71.09125616960227, 42.338414657860994], [-71.0912720952183, 42.33843888156116]]}}, {"type": "Feature", "properties": {"surface": "paved"}, "geometry": {"type": "LineString", "coordinates": [[-71.0912720952183, 42.33843888156116], [-71.09128039330244, 42.3384453356266]]}}, {"type": "Feature", "properties": {"surface": "paved"}, "geometry": {"type": "LineString", "coordinates": [[-71.09128039330244, 42.3384453356266], [-71.09128617681563, 42.33844466507435]]}}, {"type": "Feature", "properties": {"surface": "paved"}, "geometry": {"type": "LineString", "coordinates": [[-71.09128617681563, 42.33844466507435], [-71.09129648655653, 42.338450867682695]]}}, {"type": "Feature", "properties": {"surface": "paved"}, "geometry": {"type": "LineString", "coordinates": [[-71.09129648655653, 42.338450867682695], [-71.09130092896521, 42.33846084214747]]}}, {"type": "Feature", "properties": {"surface": "paved"}, "geometry": {"type": "LineString", "coordinates": [[-71.09130092896521, 42.33846084214747], [-71.09130864031613, 42.338474756106734]]}}, {"type": "Feature", "properties": {"surface": "paved"}, "geometry": {"type": "LineString", "coordinates": [[-71.09130864031613, 42.338474756106734], [-71.09131635166705, 42.33848766423762]]}}, {"type": "Feature", "properties": {"surface": "paved"}, "geometry": {"type": "LineString", "coordinates": [[-71.09131635166705, 42.33848766423762], [-71.09132959507406, 42.33849864453077]]}}, {"type": "Feature", "properties": {"surface": "paved"}, "geometry": {"type": "LineString", "coordinates": [[-71.09132959507406, 42.33849864453077], [-71.09133906662464, 42.33850618824363]]}}, {"type": "Feature", "properties": {"surface": "paved"}, "geometry": {"type": "LineString", "coordinates": [[-71.09133906662464, 42.33850618824363], [-71.09135088510811, 42.33851817436516]]}}, {"type": "Feature", "properties": {"surface": "paved"}, "geometry": {"type": "LineString", "coordinates": [[-71.09135088510811, 42.33851817436516], [-71.09135373495519, 42.33852747827768]]}}, {"type": "Feature", "properties": {"surface": "paved"}, "geometry": {"type": "LineString", "coordinates": [[-71.09135373495519, 42.33852747827768], [-71.09136119484901, 42.33854005113244]]}}, {"type": "Feature", "properties": {"surface": "paved"}, "geometry": {"type": "LineString", "coordinates": [[-71.09136119484901, 42.33854005113244], [-71.09137485735118, 42.33855572529137]]}}, {"type": "Feature", "properties": {"surface": "paved"}, "geometry": {"type": "LineString", "coordinates": [[-71.09137485735118, 42.33855572529137], [-71.09138139523566, 42.338573494926095]]}}, {"type": "Feature", "properties": {"surface": "paved"}, "geometry": {"type": "LineString", "coordinates": [[-71.09138139523566, 42.338573494926095], [-71.09138743020594, 42.338589588180184]]}}, {"type": "Feature", "properties": {"surface": "paved"}, "geometry": {"type": "LineString", "coordinates": [[-71.09138743020594, 42.338589588180184], [-71.09139371663332, 42.33859905973077]]}}, {"type": "Feature", "properties": {"surface": "paved"}, "geometry": {"type": "LineString", "coordinates": [[-71.09139371663332, 42.33859905973077], [-71.09138793312013, 42.33861045911908]]}}, {"type": "Feature", "properties": {"surface": "paved"}, "geometry": {"type": "LineString", "coordinates": [[-71.09138793312013, 42.33861045911908], [-71.09137644991279, 42.33862009830773]]}}, {"type": "Feature", "properties": {"surface": "paved"}, "geometry": {"type": "LineString", "coordinates": [[-71.09137644991279, 42.33862009830773], [-71.09136773273349, 42.338640885427594]]}}, {"type": "Feature", "properties": {"surface": "paved"}, "geometry": {"type": "LineString", "coordinates": [[-71.09136773273349, 42.338640885427594], [-71.09137519262731, 42.33865044079721]]}}, {"type": "Feature", "properties": {"surface": "paved"}, "geometry": {"type": "LineString", "coordinates": [[-71.09137519262731, 42.33865044079721], [-71.09137745574117, 42.33866007998586]]}}, {"type": "Feature", "properties": {"surface": "paved"}, "geometry": {"type": "LineString", "coordinates": [[-71.09137745574117, 42.33866007998586], [-71.09138525091112, 42.338670222088695]]}}, {"type": "Feature", "properties": {"surface": "paved"}, "geometry": {"type": "LineString", "coordinates": [[-71.09138525091112, 42.338670222088695], [-71.09139522537589, 42.33867206610739]]}}, {"type": "Feature", "properties": {"surface": "paved"}, "geometry": {"type": "LineString", "coordinates": [[-71.09139522537589, 42.33867206610739], [-71.09140193089843, 42.338681537657976]]}}, {"type": "Feature", "properties": {"surface": "paved"}, "geometry": {"type": "LineString", "coordinates": [[-71.09140193089843, 42.338681537657976], [-71.09141659922898, 42.33868799172342]]}}, {"type": "Feature", "properties": {"surface": "paved"}, "geometry": {"type": "LineString", "coordinates": [[-71.09141659922898, 42.33868799172342], [-71.09142623841763, 42.33870266005397]]}}, {"type": "Feature", "properties": {"surface": "paved"}, "geometry": {"type": "LineString", "coordinates": [[-71.09142623841763, 42.33870266005397], [-71.09143353067338, 42.338716238737106]]}}, {"type": "Feature", "properties": {"surface": "paved"}, "geometry": {"type": "LineString", "coordinates": [[-71.09143353067338, 42.338716238737106], [-71.09143705107272, 42.338731829077005]]}}, {"type": "Feature", "properties": {"surface": "paved"}, "geometry": {"type": "LineString", "coordinates": [[-71.09143705107272, 42.338731829077005], [-71.0914486180991, 42.33874297700822]]}}, {"type": "Feature", "properties": {"surface": "paved"}, "geometry": {"type": "LineString", "coordinates": [[-71.0914486180991, 42.33874297700822], [-71.09145892784, 42.33873954042792]]}}, {"type": "Feature", "properties": {"surface": "paved"}, "geometry": {"type": "LineString", "coordinates": [[-71.09145892784, 42.33873954042792], [-71.09146798029542, 42.3387267999351]]}}, {"type": "Feature", "properties": {"surface": "paved"}, "geometry": {"type": "LineString", "coordinates": [[-71.09146798029542, 42.3387267999351], [-71.09149128198624, 42.33873878605664]]}}, {"type": "Feature", "properties": {"surface": "paved"}, "geometry": {"type": "LineString", "coordinates": [[-71.09149128198624, 42.33873878605664], [-71.09151156619191, 42.33873954042792]]}}, {"type": "Feature", "properties": {"surface": "paved"}, "geometry": {"type": "LineString", "coordinates": [[-71.09151156619191, 42.33873954042792], [-71.09153059311211, 42.338740630075336]]}}, {"type": "Feature", "properties": {"surface": "paved"}, "geometry": {"type": "LineString", "coordinates": [[-71.09153059311211, 42.338740630075336], [-71.09155003912747, 42.3387426417321]]}}, {"type": "Feature", "properties": {"surface": "paved"}, "geometry": {"type": "LineString", "coordinates": [[-71.09155003912747, 42.3387426417321], [-71.09156621620059, 42.338743479922414]]}}, {"type": "Feature", "properties": {"surface": "paved"}, "geometry": {"type": "LineString", "coordinates": [[-71.09156621620059, 42.338743479922414], [-71.0915828961879, 42.33874037861824]]}}, {"type": "Feature", "properties": {"surface": "paved"}, "geometry": {"type": "LineString", "coordinates": [[-71.0915828961879, 42.33874037861824], [-71.09160024672747, 42.33873836696148]]}}, {"type": "Feature", "properties": {"surface": "paved"}, "geometry": {"type": "LineString", "coordinates": [[-71.09160024672747, 42.33873836696148], [-71.09161717817187, 42.33873258344829]]}}, {"type": "Feature", "properties": {"surface": "paved"}, "geometry": {"type": "LineString", "coordinates": [[-71.09161717817187, 42.33873258344829], [-71.09163612127304, 42.338736187666655]]}}, {"type": "Feature", "properties": {"surface": "paved"}, "geometry": {"type": "LineString", "coordinates": [[-71.09163612127304, 42.338736187666655], [-71.09165565110743, 42.33873291872442]]}}, {"type": "Feature", "properties": {"surface": "paved"}, "geometry": {"type": "LineString", "coordinates": [[-71.09165565110743, 42.33873291872442], [-71.09166914597154, 42.33872948214412]]}}, {"type": "Feature", "properties": {"surface": "paved"}, "geometry": {"type": "LineString", "coordinates": [[-71.09166914597154, 42.33872948214412], [-71.09168632887304, 42.33872713521123]]}}, {"type": "Feature", "properties": {"surface": "paved"}, "geometry": {"type": "LineString", "coordinates": [[-71.09168632887304, 42.33872713521123], [-71.09170996583998, 42.338729817420244]]}}, {"type": "Feature", "properties": {"surface": "paved"}, "geometry": {"type": "LineString", "coordinates": [[-71.09170996583998, 42.338729817420244], [-71.09172413125634, 42.33873057179153]]}}, {"type": "Feature", "properties": {"surface": "paved"}, "geometry": {"type": "LineString", "coordinates": [[-71.09172413125634, 42.33873057179153], [-71.09174575656652, 42.3387339245528]]}}, {"type": "Feature", "properties": {"surface": "paved"}, "geometry": {"type": "LineString", "coordinates": [[-71.09174575656652, 42.3387339245528], [-71.09176377765834, 42.338743479922414]]}}, {"type": "Feature", "properties": {"surface": "paved"}, "geometry": {"type": "LineString", "coordinates": [[-71.09176377765834, 42.338743479922414], [-71.09178045764565, 42.33875487931073]]}}, {"type": "Feature", "properties": {"surface": "paved"}, "geometry": {"type": "LineString", "coordinates": [[-71.09178045764565, 42.33875487931073], [-71.09179772436619, 42.338766446337104]]}}, {"type": "Feature", "properties": {"surface": "paved"}, "geometry": {"type": "LineString", "coordinates": [[-71.09179772436619, 42.338766446337104], [-71.09181767329574, 42.33876627869904]]}}, {"type": "Feature", "properties": {"surface": "paved"}, "geometry": {"type": "LineString", "coordinates": [[-71.09181767329574, 42.33876627869904], [-71.09182303771377, 42.338775247335434]]}}, {"type": "Feature", "properties": {"surface": "paved"}, "geometry": {"type": "LineString", "coordinates": [[-71.09182303771377, 42.338775247335434], [-71.09183016233146, 42.3387838806957]]}}, {"type": "Feature", "properties": {"surface": "paved"}, "geometry": {"type": "LineString", "coordinates": [[-71.09183016233146, 42.3387838806957], [-71.09184298664331, 42.338799219578505]]}}, {"type": "Feature", "properties": {"surface": "paved"}, "geometry": {"type": "LineString", "coordinates": [[-71.09184298664331, 42.338799219578505], [-71.09185664914548, 42.338811876252294]]}}, {"type": "Feature", "properties": {"surface": "paved"}, "geometry": {"type": "LineString", "coordinates": [[-71.09185664914548, 42.338811876252294], [-71.09187408350408, 42.33882587403059]]}}, {"type": "Feature", "properties": {"surface": "paved"}, "geometry": {"type": "LineString", "coordinates": [[-71.09187408350408, 42.33882587403059], [-71.09188456088305, 42.33883853070438]]}}, {"type": "Feature", "properties": {"surface": "paved"}, "geometry": {"type": "LineString", "coordinates": [[-71.09188456088305, 42.33883853070438], [-71.0918955411762, 42.338852444663644]]}}, {"type": "Feature", "properties": {"surface": "paved"}, "geometry": {"type": "LineString", "coordinates": [[-71.0918955411762, 42.338852444663644], [-71.09190442599356, 42.33886593952775]]}}, {"type": "Feature", "properties": {"surface": "paved"}, "geometry": {"type": "LineString", "coordinates": [[-71.09190442599356, 42.33886593952775], [-71.09191532246768, 42.33887683600187]]}}, {"type": "Feature", "properties": {"surface": "paved"}, "geometry": {"type": "LineString", "coordinates": [[-71.09191532246768, 42.33887683600187], [-71.09192756004632, 42.33888169750571]]}}, {"type": "Feature", "properties": {"surface": "paved"}, "geometry": {"type": "LineString", "coordinates": [[-71.09192756004632, 42.33888169750571], [-71.09193552285433, 42.338892593979836]]}}, {"type": "Feature", "properties": {"surface": "paved"}, "geometry": {"type": "LineString", "coordinates": [[-71.09193552285433, 42.338892593979836], [-71.0919454973191, 42.338905753567815]]}}, {"type": "Feature", "properties": {"surface": "paved"}, "geometry": {"type": "LineString", "coordinates": [[-71.0919454973191, 42.338905753567815], [-71.09195563942194, 42.33891732059419]]}}, {"type": "Feature", "properties": {"surface": "paved"}, "geometry": {"type": "LineString", "coordinates": [[-71.09195563942194, 42.33891732059419], [-71.09196209348738, 42.338935593143106]]}}, {"type": "Feature", "properties": {"surface": "paved"}, "geometry": {"type": "LineString", "coordinates": [[-71.09196209348738, 42.338935593143106], [-71.09196905046701, 42.33895529061556]]}}, {"type": "Feature", "properties": {"surface": "paved"}, "geometry": {"type": "LineString", "coordinates": [[-71.09196905046701, 42.33895529061556], [-71.09197885729373, 42.33896803110838]]}}, {"type": "Feature", "properties": {"surface": "paved"}, "geometry": {"type": "LineString", "coordinates": [[-71.09197885729373, 42.33896803110838], [-71.09198665246367, 42.33898311853409]]}}, {"type": "Feature", "properties": {"surface": "paved"}, "geometry": {"type": "LineString", "coordinates": [[-71.09198665246367, 42.33898311853409], [-71.09199486672878, 42.338996697217226]]}}, {"type": "Feature", "properties": {"surface": "paved"}, "geometry": {"type": "LineString", "coordinates": [[-71.09199486672878, 42.338996697217226], [-71.09200593084097, 42.33900583349168]]}}, {"type": "Feature", "properties": {"surface": "paved"}, "geometry": {"type": "LineString", "coordinates": [[-71.09200593084097, 42.33900583349168], [-71.09201615676284, 42.339009353891015]]}}, {"type": "Feature", "properties": {"surface": "paved"}, "geometry": {"type": "LineString", "coordinates": [[-71.09201615676284, 42.339009353891015], [-71.09202629886568, 42.33900859951973]]}}, {"type": "Feature", "properties": {"surface": "paved"}, "geometry": {"type": "LineString", "coordinates": [[-71.09202629886568, 42.33900859951973], [-71.09202973544598, 42.339016143232584]]}}, {"type": "Feature", "properties": {"surface": "paved"}, "geometry": {"type": "LineString", "coordinates": [[-71.09202973544598, 42.339016143232584], [-71.09203979372978, 42.33900809660554]]}}, {"type": "Feature", "properties": {"surface": "paved"}, "geometry": {"type": "LineString", "coordinates": [[-71.09203979372978, 42.33900809660554], [-71.09205479733646, 42.33899845741689]]}}, {"type": "Feature", "properties": {"surface": "paved"}, "geometry": {"type": "LineString", "coordinates": [[-71.09205479733646, 42.33899845741689], [-71.09207206405699, 42.33898085542023]]}}, {"type": "Feature", "properties": {"surface": "paved"}, "geometry": {"type": "LineString", "coordinates": [[-71.09207206405699, 42.33898085542023], [-71.0920921806246, 42.338958056643605]]}}, {"type": "Feature", "properties": {"surface": "paved"}, "geometry": {"type": "LineString", "coordinates": [[-71.0920921806246, 42.338958056643605], [-71.09211087226868, 42.33893467113376]]}}, {"type": "Feature", "properties": {"surface": "paved"}, "geometry": {"type": "LineString", "coordinates": [[-71.09211087226868, 42.33893467113376], [-71.0921307373792, 42.33891773968935]]}}, {"type": "Feature", "properties": {"surface": "paved"}, "geometry": {"type": "LineString", "coordinates": [[-71.0921307373792, 42.33891773968935], [-71.09215177595615, 42.33890583738685]]}}, {"type": "Feature", "properties": {"surface": "paved"}, "geometry": {"type": "LineString", "coordinates": [[-71.09215177595615, 42.33890583738685], [-71.09217214398086, 42.33889712020755]]}}, {"type": "Feature", "properties": {"surface": "paved"}, "geometry": {"type": "LineString", "coordinates": [[-71.09217214398086, 42.33889712020755], [-71.09219091944396, 42.33888513408601]]}}, {"type": "Feature", "properties": {"surface": "paved"}, "geometry": {"type": "LineString", "coordinates": [[-71.09219091944396, 42.33888513408601], [-71.09220542013645, 42.33887323178351]]}}, {"type": "Feature", "properties": {"surface": "paved"}, "geometry": {"type": "LineString", "coordinates": [[-71.09220542013645, 42.33887323178351], [-71.09222277067602, 42.33885923400521]]}}, {"type": "Feature", "properties": {"surface": "paved"}, "geometry": {"type": "LineString", "coordinates": [[-71.09222277067602, 42.33885923400521], [-71.09223953448236, 42.338845655322075]]}}, {"type": "Feature", "properties": {"surface": "paved"}, "geometry": {"type": "LineString", "coordinates": [[-71.09223953448236, 42.338845655322075], [-71.09225411899388, 42.33883467502892]]}}, {"type": "Feature", "properties": {"surface": "paved"}, "geometry": {"type": "LineString", "coordinates": [[-71.09225411899388, 42.33883467502892], [-71.0922705475241, 42.33882528729737]]}}, {"type": "Feature", "properties": {"surface": "paved"}, "geometry": {"type": "LineString", "coordinates": [[-71.0922705475241, 42.33882528729737], [-71.09228638932109, 42.338812379166484]]}}, {"type": "Feature", "properties": {"surface": "paved"}, "geometry": {"type": "LineString", "coordinates": [[-71.09228638932109, 42.338812379166484], [-71.09229669906199, 42.3387994710356]]}}, {"type": "Feature", "properties": {"surface": "paved"}, "geometry": {"type": "LineString", "coordinates": [[-71.09229669906199, 42.3387994710356], [-71.0923096910119, 42.33878865838051]]}}, {"type": "Feature", "properties": {"surface": "paved"}, "geometry": {"type": "LineString", "coordinates": [[-71.0923096910119, 42.33878865838051], [-71.09232402406633, 42.33877943828702]]}}, {"type": "Feature", "properties": {"surface": "paved"}, "geometry": {"type": "LineString", "coordinates": [[-71.09232402406633, 42.33877943828702], [-71.09233642928302, 42.338770385831594]]}}, {"type": "Feature", "properties": {"surface": "paved"}, "geometry": {"type": "LineString", "coordinates": [[-71.09233642928302, 42.338770385831594], [-71.09235084615648, 42.33875697478652]]}}, {"type": "Feature", "properties": {"surface": "paved"}, "geometry": {"type": "LineString", "coordinates": [[-71.09235084615648, 42.33875697478652], [-71.09236526302993, 42.33874708414078]]}}, {"type": "Feature", "properties": {"surface": "paved"}, "geometry": {"type": "LineString", "coordinates": [[-71.09236526302993, 42.33874708414078], [-71.09237699769437, 42.33873937278986]]}}, {"type": "Feature", "properties": {"surface": "paved"}, "geometry": {"type": "LineString", "coordinates": [[-71.09237699769437, 42.33873937278986], [-71.09239334240556, 42.33873417600989]]}}, {"type": "Feature", "properties": {"surface": "paved"}, "geometry": {"type": "LineString", "coordinates": [[-71.09239334240556, 42.33873417600989], [-71.09240608289838, 42.338729398325086]]}}, {"type": "Feature", "properties": {"surface": "paved"}, "geometry": {"type": "LineString", "coordinates": [[-71.09240608289838, 42.338729398325086], [-71.09241278842092, 42.33872218988836]]}}, {"type": "Feature", "properties": {"surface": "paved"}, "geometry": {"type": "LineString", "coordinates": [[-71.09241278842092, 42.33872218988836], [-71.0924190748483, 42.33871556818485]]}}, {"type": "Feature", "properties": {"surface": "paved"}, "geometry": {"type": "LineString", "coordinates": [[-71.0924190748483, 42.33871556818485], [-71.09242133796215, 42.338710790500045]]}}, {"type": "Feature", "properties": {"surface": "paved"}, "geometry": {"type": "LineString", "coordinates": [[-71.09242133796215, 42.338710790500045], [-71.09242334961891, 42.33870869502425]]}}, {"type": "Feature", "properties": {"surface": "paved"}, "geometry": {"type": "LineString", "coordinates": [[-71.09242334961891, 42.33870869502425], [-71.09242837876081, 42.338709365576506]]}}, {"type": "Feature", "properties": {"surface": "paved"}, "geometry": {"type": "LineString", "coordinates": [[-71.09242837876081, 42.338709365576506], [-71.09243634156883, 42.338709365576506]]}}, {"type": "Feature", "properties": {"surface": "paved"}, "geometry": {"type": "LineString", "coordinates": [[-71.09243634156883, 42.338709365576506], [-71.09244254417717, 42.33870567753911]]}}, {"type": "Feature", "properties": {"surface": "paved"}, "geometry": {"type": "LineString", "coordinates": [[-71.09244254417717, 42.33870567753911], [-71.09245855361223, 42.33870039694011]]}}, {"type": "Feature", "properties": {"surface": "paved"}, "geometry": {"type": "LineString", "coordinates": [[-71.09245855361223, 42.33870039694011], [-71.09246836043894, 42.33869628980756]]}}, {"type": "Feature", "properties": {"surface": "paved"}, "geometry": {"type": "LineString", "coordinates": [[-71.09246836043894, 42.33869628980756], [-71.09248495660722, 42.33869494870305]]}}, {"type": "Feature", "properties": {"surface": "paved"}, "geometry": {"type": "LineString", "coordinates": [[-71.09248495660722, 42.33869494870305], [-71.09250549226999, 42.33870014548302]]}}, {"type": "Feature", "properties": {"surface": "paved"}, "geometry": {"type": "LineString", "coordinates": [[-71.09250549226999, 42.33870014548302], [-71.09252787195146, 42.33870844356716]]}}, {"type": "Feature", "properties": {"surface": "paved"}, "geometry": {"type": "LineString", "coordinates": [[-71.09252787195146, 42.33870844356716], [-71.09254664741457, 42.33871934004128]]}}, {"type": "Feature", "properties": {"surface": "paved"}, "geometry": {"type": "LineString", "coordinates": [[-71.09254664741457, 42.33871934004128], [-71.09256542287767, 42.33873073942959]]}}, {"type": "Feature", "properties": {"surface": "paved"}, "geometry": {"type": "LineString", "coordinates": [[-71.09256542287767, 42.33873073942959], [-71.09257732518017, 42.33874616213143]]}}, {"type": "Feature", "properties": {"surface": "paved"}, "geometry": {"type": "LineString", "coordinates": [[-71.09257732518017, 42.33874616213143], [-71.09259199351072, 42.33876083046198]]}}, {"type": "Feature", "properties": {"surface": "paved"}, "geometry": {"type": "LineString", "coordinates": [[-71.09259199351072, 42.33876083046198], [-71.09260129742324, 42.33877591788769]]}}, {"type": "Feature", "properties": {"surface": "paved"}, "geometry": {"type": "LineString", "coordinates": [[-71.09260129742324, 42.33877591788769], [-71.09261378645897, 42.338790921494365]]}}, {"type": "Feature", "properties": {"surface": "paved"}, "geometry": {"type": "LineString", "coordinates": [[-71.09261378645897, 42.338790921494365], [-71.09261848032475, 42.33880257233977]]}}, {"type": "Feature", "properties": {"surface": "paved"}, "geometry": {"type": "LineString", "coordinates": [[-71.09261848032475, 42.33880257233977], [-71.09262501820922, 42.338815899565816]]}}, {"type": "Feature", "properties": {"surface": "paved"}, "geometry": {"type": "LineString", "coordinates": [[-71.09262501820922, 42.338815899565816], [-71.09262635931373, 42.338829981163144]]}}, {"type": "Feature", "properties": {"surface": "paved"}, "geometry": {"type": "LineString", "coordinates": [[-71.09262635931373, 42.338829981163144], [-71.09263063408434, 42.33884481713176]]}}, {"type": "Feature", "properties": {"surface": "paved"}, "geometry": {"type": "LineString", "coordinates": [[-71.09263063408434, 42.33884481713176], [-71.09263013117015, 42.338859820738435]]}}, {"type": "Feature", "properties": {"surface": "paved"}, "geometry": {"type": "LineString", "coordinates": [[-71.09263013117015, 42.338859820738435], [-71.09262987971306, 42.33886987902224]]}}, {"type": "Feature", "properties": {"surface": "paved"}, "geometry": {"type": "LineString", "coordinates": [[-71.09262987971306, 42.33886987902224], [-71.09262895770371, 42.338882451877]]}}, {"type": "Feature", "properties": {"surface": "paved"}, "geometry": {"type": "LineString", "coordinates": [[-71.09262895770371, 42.338882451877], [-71.09262778423727, 42.33889368362725]]}}, {"type": "Feature", "properties": {"surface": "paved"}, "geometry": {"type": "LineString", "coordinates": [[-71.09262778423727, 42.33889368362725], [-71.09262795187533, 42.338906675577164]]}}, {"type": "Feature", "properties": {"surface": "paved"}, "geometry": {"type": "LineString", "coordinates": [[-71.09262795187533, 42.338906675577164], [-71.09263055026531, 42.33891472220421]]}}, {"type": "Feature", "properties": {"surface": "paved"}, "geometry": {"type": "LineString", "coordinates": [[-71.09263055026531, 42.33891472220421], [-71.09263323247433, 42.338920924812555]]}}, {"type": "Feature", "properties": {"surface": "paved"}, "geometry": {"type": "LineString", "coordinates": [[-71.09263323247433, 42.338920924812555], [-71.09263708814979, 42.3389271274209]]}}, {"type": "Feature", "properties": {"surface": "paved"}, "geometry": {"type": "LineString", "coordinates": [[-71.09263708814979, 42.3389271274209], [-71.09263717196882, 42.33893148601055]]}}, {"type": "Feature", "properties": {"surface": "paved"}, "geometry": {"type": "LineString", "coordinates": [[-71.09263717196882, 42.33893148601055], [-71.09263884834945, 42.33893592841923]]}}, {"type": "Feature", "properties": {"surface": "paved"}, "geometry": {"type": "LineString", "coordinates": [[-71.09263884834945, 42.33893592841923], [-71.09264245256782, 42.338939029723406]]}}, {"type": "Feature", "properties": {"surface": "paved"}, "geometry": {"type": "LineString", "coordinates": [[-71.09264245256782, 42.338939029723406], [-71.09264563769102, 42.3389411251992]]}}, {"type": "Feature", "properties": {"surface": "paved"}, "geometry": {"type": "LineString", "coordinates": [[-71.09264563769102, 42.3389411251992], [-71.09264412894845, 42.33894037082791]]}}, {"type": "Feature", "properties": {"surface": "paved"}, "geometry": {"type": "LineString", "coordinates": [[-71.09264412894845, 42.33894037082791], [-71.09264622442424, 42.33894129283726]]}}, {"type": "Feature", "properties": {"surface": "paved"}, "geometry": {"type": "LineString", "coordinates": [[-71.09264622442424, 42.33894129283726], [-71.09264614060521, 42.3389411251992]]}}, {"type": "Feature", "properties": {"surface": "paved"}, "geometry": {"type": "LineString", "coordinates": [[-71.09264614060521, 42.3389411251992], [-71.09264597296715, 42.338941376656294]]}}, {"type": "Feature", "properties": {"surface": "paved"}, "geometry": {"type": "LineString", "coordinates": [[-71.09264597296715, 42.338941376656294], [-71.09264454804361, 42.33894213102758]]}}, {"type": "Feature", "properties": {"surface": "paved"}, "geometry": {"type": "LineString", "coordinates": [[-71.09264454804361, 42.33894213102758], [-71.09264429658651, 42.33894841745496]]}}, {"type": "Feature", "properties": {"surface": "paved"}, "geometry": {"type": "LineString", "coordinates": [[-71.09264429658651, 42.33894841745496], [-71.0926447995007, 42.33896082267165]]}}, {"type": "Feature", "properties": {"surface": "paved"}, "geometry": {"type": "LineString", "coordinates": [[-71.0926447995007, 42.33896082267165], [-71.09264387749135, 42.338973730802536]]}}, {"type": "Feature", "properties": {"surface": "paved"}, "geometry": {"type": "LineString", "coordinates": [[-71.09264387749135, 42.338973730802536], [-71.09264278784394, 42.338988399133086]]}}, {"type": "Feature", "properties": {"surface": "paved"}, "geometry": {"type": "LineString", "coordinates": [[-71.09264278784394, 42.338988399133086], [-71.09264052473009, 42.33900373801589]]}}, {"type": "Feature", "properties": {"surface": "paved"}, "geometry": {"type": "LineString", "coordinates": [[-71.09264052473009, 42.33900373801589], [-71.09263666905463, 42.339019160717726]]}}, {"type": "Feature", "properties": {"surface": "paved"}, "geometry": {"type": "LineString", "coordinates": [[-71.09263666905463, 42.339019160717726], [-71.09262853860855, 42.33903366141021]]}}, {"type": "Feature", "properties": {"surface": "paved"}, "geometry": {"type": "LineString", "coordinates": [[-71.09262853860855, 42.33903366141021], [-71.09262032434344, 42.33904732391238]]}}, {"type": "Feature", "properties": {"surface": "paved"}, "geometry": {"type": "LineString", "coordinates": [[-71.09262032434344, 42.33904732391238], [-71.09260791912675, 42.33906081877649]]}}, {"type": "Feature", "properties": {"surface": "paved"}, "geometry": {"type": "LineString", "coordinates": [[-71.09260791912675, 42.33906081877649], [-71.09259886667132, 42.33907213434577]]}}, {"type": "Feature", "properties": {"surface": "paved"}, "geometry": {"type": "LineString", "coordinates": [[-71.09259886667132, 42.33907213434577], [-71.09258855693042, 42.33908445574343]]}}, {"type": "Feature", "properties": {"surface": "paved"}, "geometry": {"type": "LineString", "coordinates": [[-71.09258855693042, 42.33908445574343], [-71.0925808455795, 42.33909786678851]]}}, {"type": "Feature", "properties": {"surface": "paved"}, "geometry": {"type": "LineString", "coordinates": [[-71.0925808455795, 42.33909786678851], [-71.09257573261857, 42.3391102720052]]}}, {"type": "Feature", "properties": {"surface": "paved"}, "geometry": {"type": "LineString", "coordinates": [[-71.09257573261857, 42.3391102720052], [-71.0925710387528, 42.3391224257648]]}}, {"type": "Feature", "properties": {"surface": "paved"}, "geometry": {"type": "LineString", "coordinates": [[-71.0925710387528, 42.3391224257648], [-71.0925670992583, 42.33913357369602]]}}, {"type": "Feature", "properties": {"surface": "paved"}, "geometry": {"type": "LineString", "coordinates": [[-71.0925670992583, 42.33913357369602], [-71.09256139956415, 42.33914262615144]]}}, {"type": "Feature", "properties": {"surface": "paved"}, "geometry": {"type": "LineString", "coordinates": [[-71.09256139956415, 42.33914262615144], [-71.09255695715547, 42.33915469609201]]}}, {"type": "Feature", "properties": {"surface": "paved"}, "geometry": {"type": "LineString", "coordinates": [[-71.09255695715547, 42.33915469609201], [-71.09255645424128, 42.33916785567999]]}}, {"type": "Feature", "properties": {"surface": "paved"}, "geometry": {"type": "LineString", "coordinates": [[-71.09255645424128, 42.33916785567999], [-71.09255796298385, 42.33917975798249]]}}, {"type": "Feature", "properties": {"surface": "paved"}, "geometry": {"type": "LineString", "coordinates": [[-71.09255796298385, 42.33917975798249], [-71.09256274066865, 42.339190570637584]]}}, {"type": "Feature", "properties": {"surface": "paved"}, "geometry": {"type": "LineString", "coordinates": [[-71.09256274066865, 42.339190570637584], [-71.09256617724895, 42.33920448459685]]}}, {"type": "Feature", "properties": {"surface": "paved"}, "geometry": {"type": "LineString", "coordinates": [[-71.09256617724895, 42.33920448459685], [-71.09257774427533, 42.33922166749835]]}}, {"type": "Feature", "properties": {"surface": "paved"}, "geometry": {"type": "LineString", "coordinates": [[-71.09257774427533, 42.33922166749835], [-71.09257916919887, 42.33923583291471]]}}, {"type": "Feature", "properties": {"surface": "paved"}, "geometry": {"type": "LineString", "coordinates": [[-71.09257916919887, 42.33923583291471], [-71.09257648698986, 42.33924756757915]]}}, {"type": "Feature", "properties": {"surface": "paved"}, "geometry": {"type": "LineString", "coordinates": [[-71.09257648698986, 42.33924756757915], [-71.09257338568568, 42.339256620034575]]}}, {"type": "Feature", "properties": {"surface": "paved"}, "geometry": {"type": "LineString", "coordinates": [[-71.09257338568568, 42.339256620034575], [-71.09257715754211, 42.33927112072706]]}}, {"type": "Feature", "properties": {"surface": "paved"}, "geometry": {"type": "LineString", "coordinates": [[-71.09257715754211, 42.33927112072706], [-71.09258436597884, 42.33928612433374]]}}, {"type": "Feature", "properties": {"surface": "paved"}, "geometry": {"type": "LineString", "coordinates": [[-71.09258436597884, 42.33928612433374], [-71.09258436597884, 42.339301127940416]]}}, {"type": "Feature", "properties": {"surface": "paved"}, "geometry": {"type": "LineString", "coordinates": [[-71.09258436597884, 42.339301127940416], [-71.09258587472141, 42.33930674381554]]}}, {"type": "Feature", "properties": {"surface": "paved"}, "geometry": {"type": "LineString", "coordinates": [[-71.09258587472141, 42.33930674381554], [-71.09258788637817, 42.33931512571871]]}}, {"type": "Feature", "properties": {"surface": "paved"}, "geometry": {"type": "LineString", "coordinates": [[-71.09258788637817, 42.33931512571871], [-71.09259316697717, 42.33932719565928]]}}, {"type": "Feature", "properties": {"surface": "paved"}, "geometry": {"type": "LineString", "coordinates": [[-71.09259316697717, 42.33932719565928], [-71.09259618446231, 42.339342534542084]]}}, {"type": "Feature", "properties": {"surface": "paved"}, "geometry": {"type": "LineString", "coordinates": [[-71.09259618446231, 42.339342534542084], [-71.09259962104261, 42.33935116790235]]}}, {"type": "Feature", "properties": {"surface": "paved"}, "geometry": {"type": "LineString", "coordinates": [[-71.09259962104261, 42.33935116790235], [-71.09260833822191, 42.33936734497547]]}}, {"type": "Feature", "properties": {"surface": "paved"}, "geometry": {"type": "LineString", "coordinates": [[-71.09260833822191, 42.33936734497547], [-71.09260817058384, 42.33938687480986]]}}, {"type": "Feature", "properties": {"surface": "paved"}, "geometry": {"type": "LineString", "coordinates": [[-71.09260817058384, 42.33938687480986], [-71.09261303208768, 42.339400788769126]]}}, {"type": "Feature", "properties": {"surface": "paved"}, "geometry": {"type": "LineString", "coordinates": [[-71.09261303208768, 42.339400788769126], [-71.09262166544795, 42.33941562473774]]}}, {"type": "Feature", "properties": {"surface": "paved"}, "geometry": {"type": "LineString", "coordinates": [[-71.09262166544795, 42.33941562473774], [-71.09262895770371, 42.3394279461354]]}}, {"type": "Feature", "properties": {"surface": "paved"}, "geometry": {"type": "LineString", "coordinates": [[-71.09262895770371, 42.3394279461354], [-71.09263884834945, 42.33943674713373]]}}, {"type": "Feature", "properties": {"surface": "paved"}, "geometry": {"type": "LineString", "coordinates": [[-71.09263884834945, 42.33943674713373], [-71.09264999628067, 42.339447224512696]]}}, {"type": "Feature", "properties": {"surface": "paved"}, "geometry": {"type": "LineString", "coordinates": [[-71.09264999628067, 42.339447224512696], [-71.09266852028668, 42.33944688923657]]}}, {"type": "Feature", "properties": {"surface": "paved"}, "geometry": {"type": "LineString", "coordinates": [[-71.09266852028668, 42.33944688923657], [-71.09268251806498, 42.339453091844916]]}}, {"type": "Feature", "properties": {"surface": "paved"}, "geometry": {"type": "LineString", "coordinates": [[-71.09268251806498, 42.339453091844916], [-71.09269752167165, 42.3394609708339]]}}, {"type": "Feature", "properties": {"surface": "paved"}, "geometry": {"type": "LineString", "coordinates": [[-71.09269752167165, 42.3394609708339], [-71.09270598739386, 42.339475974440575]]}}, {"type": "Feature", "properties": {"surface": "paved"}, "geometry": {"type": "LineString", "coordinates": [[-71.09270598739386, 42.339475974440575], [-71.09271353110671, 42.33948854729533]]}}, {"type": "Feature", "properties": {"surface": "paved"}, "geometry": {"type": "LineString", "coordinates": [[-71.09271353110671, 42.33948854729533], [-71.09272199682891, 42.33949575573206]]}}, {"type": "Feature", "properties": {"surface": "paved"}, "geometry": {"type": "LineString", "coordinates": [[-71.09272199682891, 42.33949575573206], [-71.09272669069469, 42.339500365778804]]}}, {"type": "Feature", "properties": {"surface": "paved"}, "geometry": {"type": "LineString", "coordinates": [[-71.09272669069469, 42.339500365778804], [-71.09273063018918, 42.3395058978349]]}}, {"type": "Feature", "properties": {"surface": "paved"}, "geometry": {"type": "LineString", "coordinates": [[-71.09273063018918, 42.3395058978349], [-71.09273775480688, 42.3395127709955]]}}, {"type": "Feature", "properties": {"surface": "paved"}, "geometry": {"type": "LineString", "coordinates": [[-71.09273775480688, 42.3395127709955], [-71.09274446032941, 42.33952324837446]]}}, {"type": "Feature", "properties": {"surface": "paved"}, "geometry": {"type": "LineString", "coordinates": [[-71.09274446032941, 42.33952324837446], [-71.09275099821389, 42.33953104354441]]}}, {"type": "Feature", "properties": {"surface": "paved"}, "geometry": {"type": "LineString", "coordinates": [[-71.09275099821389, 42.33953104354441], [-71.09276139177382, 42.33954219147563]]}}, {"type": "Feature", "properties": {"surface": "paved"}, "geometry": {"type": "LineString", "coordinates": [[-71.09276139177382, 42.33954219147563], [-71.09276985749602, 42.339549819007516]]}}, {"type": "Feature", "properties": {"surface": "paved"}, "geometry": {"type": "LineString", "coordinates": [[-71.09276985749602, 42.339549819007516], [-71.09277723357081, 42.33955895528197]]}}, {"type": "Feature", "properties": {"surface": "paved"}, "geometry": {"type": "LineString", "coordinates": [[-71.09277723357081, 42.33955895528197], [-71.09278234653175, 42.339566918089986]]}}, {"type": "Feature", "properties": {"surface": "paved"}, "geometry": {"type": "LineString", "coordinates": [[-71.09278234653175, 42.339566918089986], [-71.09278259798884, 42.33957789838314]]}}, {"type": "Feature", "properties": {"surface": "paved"}, "geometry": {"type": "LineString", "coordinates": [[-71.09278259798884, 42.33957789838314], [-71.09277807176113, 42.33958971686661]]}}, {"type": "Feature", "properties": {"surface": "paved"}, "geometry": {"type": "LineString", "coordinates": [[-71.09277807176113, 42.33958971686661], [-71.09277497045696, 42.33959876932204]]}}, {"type": "Feature", "properties": {"surface": "paved"}, "geometry": {"type": "LineString", "coordinates": [[-71.09277497045696, 42.33959876932204], [-71.09278083778918, 42.33960413374007]]}}, {"type": "Feature", "properties": {"surface": "paved"}, "geometry": {"type": "LineString", "coordinates": [[-71.09278083778918, 42.33960413374007], [-71.09278913587332, 42.33960874378681]]}}, {"type": "Feature", "properties": {"surface": "paved"}, "geometry": {"type": "LineString", "coordinates": [[-71.09278913587332, 42.33960874378681], [-71.09280003234744, 42.339618131518364]]}}, {"type": "Feature", "properties": {"surface": "paved"}, "geometry": {"type": "LineString", "coordinates": [[-71.09280003234744, 42.339618131518364], [-71.09280506148934, 42.33963003382087]]}}, {"type": "Feature", "properties": {"surface": "paved"}, "geometry": {"type": "LineString", "coordinates": [[-71.09280506148934, 42.33963003382087], [-71.09280765987933, 42.33964537270367]]}}, {"type": "Feature", "properties": {"surface": "paved"}, "geometry": {"type": "LineString", "coordinates": [[-71.09280765987933, 42.33964537270367], [-71.09281696379185, 42.33965911902487]]}}, {"type": "Feature", "properties": {"surface": "paved"}, "geometry": {"type": "LineString", "coordinates": [[-71.09281696379185, 42.33965911902487], [-71.09282517805696, 42.33966926112771]]}}, {"type": "Feature", "properties": {"surface": "paved"}, "geometry": {"type": "LineString", "coordinates": [[-71.09282517805696, 42.33966926112771], [-71.092833224684, 42.33967906795442]]}}, {"type": "Feature", "properties": {"surface": "paved"}, "geometry": {"type": "LineString", "coordinates": [[-71.092833224684, 42.33967906795442], [-71.09283791854978, 42.33968862332404]]}}, {"type": "Feature", "properties": {"surface": "paved"}, "geometry": {"type": "LineString", "coordinates": [[-71.09283791854978, 42.33968862332404], [-71.09284143894911, 42.33970086090267]]}}, {"type": "Feature", "properties": {"surface": "paved"}, "geometry": {"type": "LineString", "coordinates": [[-71.09284143894911, 42.33970086090267], [-71.0928538441658, 42.33971192501485]]}}, {"type": "Feature", "properties": {"surface": "paved"}, "geometry": {"type": "LineString", "coordinates": [[-71.0928538441658, 42.33971192501485], [-71.09285979531705, 42.339724246412516]]}}, {"type": "Feature", "properties": {"surface": "paved"}, "geometry": {"type": "LineString", "coordinates": [[-71.09285979531705, 42.339724246412516], [-71.0928715299815, 42.33973505906761]]}}, {"type": "Feature", "properties": {"surface": "paved"}, "geometry": {"type": "LineString", "coordinates": [[-71.0928715299815, 42.33973505906761], [-71.09287848696113, 42.33974654227495]]}}, {"type": "Feature", "properties": {"surface": "paved"}, "geometry": {"type": "LineString", "coordinates": [[-71.09287848696113, 42.33974654227495], [-71.09288854524493, 42.33975827693939]]}}, {"type": "Feature", "properties": {"surface": "paved"}, "geometry": {"type": "LineString", "coordinates": [[-71.09288854524493, 42.33975827693939], [-71.09289801679552, 42.33976908959448]]}}, {"type": "Feature", "properties": {"surface": "paved"}, "geometry": {"type": "LineString", "coordinates": [[-71.09289801679552, 42.33976908959448], [-71.09290706925094, 42.339781327173114]]}}, {"type": "Feature", "properties": {"surface": "paved"}, "geometry": {"type": "LineString", "coordinates": [[-71.09290706925094, 42.339781327173114], [-71.09291377477348, 42.33979373238981]]}}, {"type": "Feature", "properties": {"surface": "paved"}, "geometry": {"type": "LineString", "coordinates": [[-71.09291377477348, 42.33979373238981], [-71.09292173758149, 42.33980563469231]]}}, {"type": "Feature", "properties": {"surface": "paved"}, "geometry": {"type": "LineString", "coordinates": [[-71.09292173758149, 42.33980563469231], [-71.09293053857982, 42.3398182913661]]}}, {"type": "Feature", "properties": {"surface": "paved"}, "geometry": {"type": "LineString", "coordinates": [[-71.09293053857982, 42.3398182913661], [-71.09293699264526, 42.339831283316016]]}}, {"type": "Feature", "properties": {"surface": "paved"}, "geometry": {"type": "LineString", "coordinates": [[-71.09293699264526, 42.339831283316016], [-71.09294285997748, 42.339845951646566]]}}, {"type": "Feature", "properties": {"surface": "paved"}, "geometry": {"type": "LineString", "coordinates": [[-71.09294285997748, 42.339845951646566], [-71.09294663183391, 42.33985944651067]]}}, {"type": "Feature", "properties": {"surface": "paved"}, "geometry": {"type": "LineString", "coordinates": [[-71.09294663183391, 42.33985944651067], [-71.09295409172773, 42.3398719355464]]}}, {"type": "Feature", "properties": {"surface": "paved"}, "geometry": {"type": "LineString", "coordinates": [[-71.09295409172773, 42.3398719355464], [-71.09296532347798, 42.33988123945892]]}}, {"type": "Feature", "properties": {"surface": "paved"}, "geometry": {"type": "LineString", "coordinates": [[-71.09296532347798, 42.33988123945892], [-71.09297789633274, 42.33989238739014]]}}, {"type": "Feature", "properties": {"surface": "paved"}, "geometry": {"type": "LineString", "coordinates": [[-71.09297789633274, 42.33989238739014], [-71.09298854134977, 42.33990328386426]]}}, {"type": "Feature", "properties": {"surface": "paved"}, "geometry": {"type": "LineString", "coordinates": [[-71.09298854134977, 42.33990328386426], [-71.09299675561488, 42.339913845062256]]}}, {"type": "Feature", "properties": {"surface": "paved"}, "geometry": {"type": "LineString", "coordinates": [[-71.09299675561488, 42.339913845062256], [-71.0930039640516, 42.33992432244122]]}}, {"type": "Feature", "properties": {"surface": "paved"}, "geometry": {"type": "LineString", "coordinates": [[-71.0930039640516, 42.33992432244122], [-71.0930110886693, 42.33993798494339]]}}, {"type": "Feature", "properties": {"surface": "paved"}, "geometry": {"type": "LineString", "coordinates": [[-71.0930110886693, 42.33993798494339], [-71.09301871620119, 42.339951898902655]]}}, {"type": "Feature", "properties": {"surface": "paved"}, "geometry": {"type": "LineString", "coordinates": [[-71.09301871620119, 42.339951898902655], [-71.09302818775177, 42.33996371738613]]}}, {"type": "Feature", "properties": {"surface": "paved"}, "geometry": {"type": "LineString", "coordinates": [[-71.09302818775177, 42.33996371738613], [-71.09303774312139, 42.339974446222186]]}}, {"type": "Feature", "properties": {"surface": "paved"}, "geometry": {"type": "LineString", "coordinates": [[-71.09303774312139, 42.339974446222186], [-71.0930507350713, 42.3399876896292]]}}, {"type": "Feature", "properties": {"surface": "paved"}, "geometry": {"type": "LineString", "coordinates": [[-71.0930507350713, 42.3399876896292], [-71.0930612962693, 42.340000849217176]]}}, {"type": "Feature", "properties": {"surface": "paved"}, "geometry": {"type": "LineString", "coordinates": [[-71.0930612962693, 42.340000849217176], [-71.0930731985718, 42.34001283533871]]}}, {"type": "Feature", "properties": {"surface": "paved"}, "geometry": {"type": "LineString", "coordinates": [[-71.0930731985718, 42.34001283533871], [-71.093081664294, 42.340023731812835]]}}, {"type": "Feature", "properties": {"surface": "paved"}, "geometry": {"type": "LineString", "coordinates": [[-71.093081664294, 42.340023731812835], [-71.09308996237814, 42.34003555029631]]}}, {"type": "Feature", "properties": {"surface": "paved"}, "geometry": {"type": "LineString", "coordinates": [[-71.09308996237814, 42.34003555029631], [-71.0930988471955, 42.34004678204656]]}}, {"type": "Feature", "properties": {"surface": "paved"}, "geometry": {"type": "LineString", "coordinates": [[-71.0930988471955, 42.34004678204656], [-71.09310714527965, 42.34005625359714]]}}, {"type": "Feature", "properties": {"surface": "paved"}, "geometry": {"type": "LineString", "coordinates": [[-71.09310714527965, 42.34005625359714], [-71.0931231547147, 42.34007075428963]]}}, {"type": "Feature", "properties": {"surface": "paved"}, "geometry": {"type": "LineString", "coordinates": [[-71.0931231547147, 42.34007075428963], [-71.0931339673698, 42.340081399306655]]}}, {"type": "Feature", "properties": {"surface": "paved"}, "geometry": {"type": "LineString", "coordinates": [[-71.0931339673698, 42.340081399306655], [-71.09314595349133, 42.34009095467627]]}}, {"type": "Feature", "properties": {"surface": "paved"}, "geometry": {"type": "LineString", "coordinates": [[-71.09314595349133, 42.34009095467627], [-71.09315492212772, 42.34009824693203]]}}, {"type": "Feature", "properties": {"surface": "paved"}, "geometry": {"type": "LineString", "coordinates": [[-71.09315492212772, 42.34009824693203], [-71.09316498041153, 42.34010553918779]]}}, {"type": "Feature", "properties": {"surface": "paved"}, "geometry": {"type": "LineString", "coordinates": [[-71.09316498041153, 42.34010553918779], [-71.09317319467664, 42.34011283144355]]}}, {"type": "Feature", "properties": {"surface": "paved"}, "geometry": {"type": "LineString", "coordinates": [[-71.09317319467664, 42.34011283144355], [-71.09318065457046, 42.34012464992702]]}}, {"type": "Feature", "properties": {"surface": "paved"}, "geometry": {"type": "LineString", "coordinates": [[-71.09318065457046, 42.34012464992702], [-71.09319037757814, 42.3401362169534]]}}, {"type": "Feature", "properties": {"surface": "paved"}, "geometry": {"type": "LineString", "coordinates": [[-71.09319037757814, 42.3401362169534], [-71.09320177696645, 42.340143425390124]]}}, {"type": "Feature", "properties": {"surface": "paved"}, "geometry": {"type": "LineString", "coordinates": [[-71.09320177696645, 42.340143425390124], [-71.09321451745927, 42.34015398658812]]}}, {"type": "Feature", "properties": {"surface": "paved"}, "geometry": {"type": "LineString", "coordinates": [[-71.09321451745927, 42.34015398658812], [-71.09321996569633, 42.3401687387377]]}}, {"type": "Feature", "properties": {"surface": "paved"}, "geometry": {"type": "LineString", "coordinates": [[-71.09321996569633, 42.3401687387377], [-71.0932267550379, 42.34018047340214]]}}, {"type": "Feature", "properties": {"surface": "paved"}, "geometry": {"type": "LineString", "coordinates": [[-71.0932267550379, 42.34018047340214], [-71.09323605895042, 42.34018826857209]]}}, {"type": "Feature", "properties": {"surface": "paved"}, "geometry": {"type": "LineString", "coordinates": [[-71.09323605895042, 42.34018826857209], [-71.09324318356812, 42.340199667960405]]}}, {"type": "Feature", "properties": {"surface": "paved"}, "geometry": {"type": "LineString", "coordinates": [[-71.09324318356812, 42.340199667960405], [-71.09325357712805, 42.340211318805814]]}}, {"type": "Feature", "properties": {"surface": "paved"}, "geometry": {"type": "LineString", "coordinates": [[-71.09325357712805, 42.340211318805814], [-71.09326799400151, 42.34022372402251]]}}, {"type": "Feature", "properties": {"surface": "paved"}, "geometry": {"type": "LineString", "coordinates": [[-71.09326799400151, 42.34022372402251], [-71.0932803992182, 42.340234285220504]]}}, {"type": "Feature", "properties": {"surface": "paved"}, "geometry": {"type": "LineString", "coordinates": [[-71.0932803992182, 42.340234285220504], [-71.09329448081553, 42.340240152552724]]}}, {"type": "Feature", "properties": {"surface": "paved"}, "geometry": {"type": "LineString", "coordinates": [[-71.09329448081553, 42.340240152552724], [-71.093311579898, 42.340249037370086]]}}, {"type": "Feature", "properties": {"surface": "paved"}, "geometry": {"type": "LineString", "coordinates": [[-71.093311579898, 42.340249037370086], [-71.09332683496177, 42.34025758691132]]}}, {"type": "Feature", "properties": {"surface": "paved"}, "geometry": {"type": "LineString", "coordinates": [[-71.09332683496177, 42.34025758691132], [-71.09333848580718, 42.340265633538365]]}}, {"type": "Feature", "properties": {"surface": "paved"}, "geometry": {"type": "LineString", "coordinates": [[-71.09333848580718, 42.340265633538365], [-71.09334653243423, 42.340275943279266]]}}, {"type": "Feature", "properties": {"surface": "paved"}, "geometry": {"type": "LineString", "coordinates": [[-71.09334653243423, 42.340275943279266], [-71.09335089102387, 42.340286588296294]]}}, {"type": "Feature", "properties": {"surface": "paved"}, "geometry": {"type": "LineString", "coordinates": [[-71.09335089102387, 42.340286588296294], [-71.09335826709867, 42.340294886380434]]}}, {"type": "Feature", "properties": {"surface": "paved"}, "geometry": {"type": "LineString", "coordinates": [[-71.09335826709867, 42.340294886380434], [-71.0933668166399, 42.34030402265489]]}}, {"type": "Feature", "properties": {"surface": "paved"}, "geometry": {"type": "LineString", "coordinates": [[-71.0933668166399, 42.34030402265489], [-71.09337327070534, 42.34031332656741]]}}, {"type": "Feature", "properties": {"surface": "paved"}, "geometry": {"type": "LineString", "coordinates": [[-71.09337327070534, 42.34031332656741], [-71.09338148497045, 42.34032246284187]]}}, {"type": "Feature", "properties": {"surface": "paved"}, "geometry": {"type": "LineString", "coordinates": [[-71.09338148497045, 42.34032246284187], [-71.09338819049299, 42.34033436514437]]}}, {"type": "Feature", "properties": {"surface": "paved"}, "geometry": {"type": "LineString", "coordinates": [[-71.09338819049299, 42.34033436514437], [-71.09339539892972, 42.34034584835172]]}}, {"type": "Feature", "properties": {"surface": "paved"}, "geometry": {"type": "LineString", "coordinates": [[-71.09339539892972, 42.34034584835172], [-71.09340378083289, 42.34035632573068]]}}, {"type": "Feature", "properties": {"surface": "paved"}, "geometry": {"type": "LineString", "coordinates": [[-71.09340378083289, 42.34035632573068], [-71.0934130847454, 42.34036604873836]]}}, {"type": "Feature", "properties": {"surface": "paved"}, "geometry": {"type": "LineString", "coordinates": [[-71.0934130847454, 42.34036604873836], [-71.09341878443956, 42.3403793759644]]}}, {"type": "Feature", "properties": {"surface": "paved"}, "geometry": {"type": "LineString", "coordinates": [[-71.09341878443956, 42.3403793759644], [-71.09343018382788, 42.34039287082851]]}}, {"type": "Feature", "properties": {"surface": "paved"}, "geometry": {"type": "LineString", "coordinates": [[-71.09343018382788, 42.34039287082851], [-71.09343387186527, 42.340404437854886]]}}, {"type": "Feature", "properties": {"surface": "paved"}, "geometry": {"type": "LineString", "coordinates": [[-71.09343387186527, 42.340404437854886], [-71.09343898482621, 42.340419022366405]]}}, {"type": "Feature", "properties": {"surface": "paved"}, "geometry": {"type": "LineString", "coordinates": [[-71.09343898482621, 42.340419022366405], [-71.09344149939716, 42.34043729491532]]}}, {"type": "Feature", "properties": {"surface": "paved"}, "geometry": {"type": "LineString", "coordinates": [[-71.09344149939716, 42.34043729491532], [-71.09344359487295, 42.340458668768406]]}}, {"type": "Feature", "properties": {"surface": "paved"}, "geometry": {"type": "LineString", "coordinates": [[-71.09344359487295, 42.340458668768406], [-71.0934500489384, 42.34047836624086]]}}, {"type": "Feature", "properties": {"surface": "paved"}, "geometry": {"type": "LineString", "coordinates": [[-71.0934500489384, 42.34047836624086], [-71.09346119686961, 42.34048917889595]]}}, {"type": "Feature", "properties": {"surface": "paved"}, "geometry": {"type": "LineString", "coordinates": [[-71.09346119686961, 42.34048917889595], [-71.09347351826727, 42.34049638733268]]}}, {"type": "Feature", "properties": {"surface": "paved"}, "geometry": {"type": "LineString", "coordinates": [[-71.09347351826727, 42.34049638733268], [-71.09348868951201, 42.34050476923585]]}}, {"type": "Feature", "properties": {"surface": "paved"}, "geometry": {"type": "LineString", "coordinates": [[-71.09348868951201, 42.34050476923585], [-71.09350176528096, 42.34051214531064]]}}, {"type": "Feature", "properties": {"surface": "paved"}, "geometry": {"type": "LineString", "coordinates": [[-71.09350176528096, 42.34051214531064], [-71.09351148828864, 42.34052689746022]]}}, {"type": "Feature", "properties": {"surface": "paved"}, "geometry": {"type": "LineString", "coordinates": [[-71.09351148828864, 42.34052689746022], [-71.0935185290873, 42.34053913503885]]}}, {"type": "Feature", "properties": {"surface": "paved"}, "geometry": {"type": "LineString", "coordinates": [[-71.0935185290873, 42.34053913503885], [-71.09352523460984, 42.340550031512976]]}}, {"type": "Feature", "properties": {"surface": "paved"}, "geometry": {"type": "LineString", "coordinates": [[-71.09352523460984, 42.340550031512976], [-71.09353453852236, 42.34055849723518]]}}, {"type": "Feature", "properties": {"surface": "paved"}, "geometry": {"type": "LineString", "coordinates": [[-71.09353453852236, 42.34055849723518], [-71.09353981912136, 42.34056184999645]]}}, {"type": "Feature", "properties": {"surface": "paved"}, "geometry": {"type": "LineString", "coordinates": [[-71.09353981912136, 42.34056184999645], [-71.09354685992002, 42.340565957129]]}}, {"type": "Feature", "properties": {"surface": "paved"}, "geometry": {"type": "LineString", "coordinates": [[-71.09354685992002, 42.340565957129], [-71.09355188906193, 42.34056914225221]]}}, {"type": "Feature", "properties": {"surface": "paved"}, "geometry": {"type": "LineString", "coordinates": [[-71.09355188906193, 42.34056914225221], [-71.09355146996677, 42.340571070089936]]}}, {"type": "Feature", "properties": {"surface": "paved"}, "geometry": {"type": "LineString", "coordinates": [[-71.09355146996677, 42.340571070089936], [-71.0935515537858, 42.340570567175746]]}}, {"type": "Feature", "properties": {"surface": "paved"}, "geometry": {"type": "LineString", "coordinates": [[-71.0935515537858, 42.340570567175746], [-71.09355205669999, 42.340570567175746]]}}, {"type": "Feature", "properties": {"surface": "paved"}, "geometry": {"type": "LineString", "coordinates": [[-71.09355205669999, 42.340570567175746], [-71.09355348162353, 42.34057132154703]]}}, {"type": "Feature", "properties": {"surface": "paved"}, "geometry": {"type": "LineString", "coordinates": [[-71.09355348162353, 42.34057132154703], [-71.0935565829277, 42.34057065099478]]}}, {"type": "Feature", "properties": {"surface": "paved"}, "geometry": {"type": "LineString", "coordinates": [[-71.0935565829277, 42.34057065099478], [-71.09355532564223, 42.34057224355638]]}}, {"type": "Feature", "properties": {"surface": "paved"}, "geometry": {"type": "LineString", "coordinates": [[-71.09355532564223, 42.34057224355638], [-71.09355649910867, 42.34057274647057]]}}, {"type": "Feature", "properties": {"surface": "paved"}, "geometry": {"type": "LineString", "coordinates": [[-71.09355649910867, 42.34057274647057], [-71.09355616383255, 42.34057375229895]]}}, {"type": "Feature", "properties": {"surface": "paved"}, "geometry": {"type": "LineString", "coordinates": [[-71.09355616383255, 42.34057375229895], [-71.09355624765158, 42.34057358466089]]}}, {"type": "Feature", "properties": {"surface": "paved"}, "geometry": {"type": "LineString", "coordinates": [[-71.09355624765158, 42.34057358466089], [-71.09355616383255, 42.34057433903217]]}}, {"type": "Feature", "properties": {"surface": "paved"}, "geometry": {"type": "LineString", "coordinates": [[-71.09355616383255, 42.34057433903217], [-71.09355599619448, 42.34057484194636]]}}, {"type": "Feature", "properties": {"surface": "paved"}, "geometry": {"type": "LineString", "coordinates": [[-71.09355599619448, 42.34057484194636], [-71.09355624765158, 42.340574925765395]]}}, {"type": "Feature", "properties": {"surface": "paved"}, "geometry": {"type": "LineString", "coordinates": [[-71.09355624765158, 42.340574925765395], [-71.09355624765158, 42.3405746743083]]}}, {"type": "Feature", "properties": {"surface": "paved"}, "geometry": {"type": "LineString", "coordinates": [[-71.09355624765158, 42.3405746743083], [-71.0935565829277, 42.34057509340346]]}}, {"type": "Feature", "properties": {"surface": "paved"}, "geometry": {"type": "LineString", "coordinates": [[-71.0935565829277, 42.34057509340346], [-71.09355725347996, 42.34057526104152]]}}, {"type": "Feature", "properties": {"surface": "paved"}, "geometry": {"type": "LineString", "coordinates": [[-71.09355725347996, 42.34057526104152], [-71.09355758875608, 42.34057517722249]]}}, {"type": "Feature", "properties": {"surface": "paved"}, "geometry": {"type": "LineString", "coordinates": [[-71.09355758875608, 42.34057517722249], [-71.09355775639415, 42.34057509340346]]}}, {"type": "Feature", "properties": {"surface": "paved"}, "geometry": {"type": "LineString", "coordinates": [[-71.09355775639415, 42.34057509340346], [-71.09355784021318, 42.34057526104152]]}}, {"type": "Feature", "properties": {"surface": "paved"}, "geometry": {"type": "LineString", "coordinates": [[-71.09355784021318, 42.34057526104152], [-71.09355758875608, 42.34057526104152]]}}, {"type": "Feature", "properties": {"surface": "paved"}, "geometry": {"type": "LineString", "coordinates": [[-71.09355758875608, 42.34057526104152], [-71.09355775639415, 42.34057526104152]]}}, {"type": "Feature", "properties": {"surface": "paved"}, "geometry": {"type": "LineString", "coordinates": [[-71.09355775639415, 42.34057526104152], [-71.09355809167027, 42.34057509340346]]}}, {"type": "Feature", "properties": {"surface": "paved"}, "geometry": {"type": "LineString", "coordinates": [[-71.09355809167027, 42.34057509340346], [-71.09355834312737, 42.34057475812733]]}}, {"type": "Feature", "properties": {"surface": "paved"}, "geometry": {"type": "LineString", "coordinates": [[-71.09355834312737, 42.34057475812733], [-71.09355767257512, 42.3405746743083]]}}, {"type": "Feature", "properties": {"surface": "paved"}, "geometry": {"type": "LineString", "coordinates": [[-71.09355767257512, 42.3405746743083], [-71.09355649910867, 42.34057484194636]]}}, {"type": "Feature", "properties": {"surface": "paved"}, "geometry": {"type": "LineString", "coordinates": [[-71.09355649910867, 42.34057484194636], [-71.09355557709932, 42.34057484194636]]}}, {"type": "Feature", "properties": {"surface": "paved"}, "geometry": {"type": "LineString", "coordinates": [[-71.09355557709932, 42.34057484194636], [-71.09355431981385, 42.340575428679585]]}}]}